MALLIGYONG-1            
1 58400U 23179A   24285.19523837  .00045798  00000+0  20379-2 0  9993
2 58400  97.3837 170.0087 0009549  38.9095 321.2826 15.21287574 49368
